OBJECT_NAME,OBJECT_ID,EPOCH,MEAN_MOTION,ECCENTRICITY,INCLINATION,RA_OF_ASC_NODE,ARG_OF_PERICENTER,MEAN_ANOMALY,EPHEMERIS_TYPE,CLASSIFICATION_TYPE,NORAD_CAT_ID,ELEMENT_SET_NO,REV_AT_EPOCH,BSTAR,MEAN_MOTION_DOT,MEAN_MOTION_DDOT
HAWK-6B,2023-011A,2026-06-27T00:27:43.398720,15.23016658,.000135,40.4995,294.7226,106.4232,253.6726,0,U,55324,999,18934,.20616E-3,.476E-4,0
HAWK-6C,2023-011C,2026-06-27T00:26:48.933024,15.23009964,.0001989,40.4978,291.5638,81.8306,278.2729,0,U,55326,999,18935,.20276E-3,.4677E-4,0
HAWK-6A,2023-011D,2026-06-27T00:26:52.015776,15.23014894,.0001576,40.4992,293.1892,76.0949,284.0036,0,U,55327,999,18935,.20946E-3,.4839E-4,0
HAWK-7A,2023-054P,2026-06-27T04:47:02.367744,15.27460883,.0003498,97.2696,65.2823,34.2908,325.8556,0,U,56191,999,17855,.2206E-3,.5857E-4,0
HAWK-7B,2023-054R,2026-06-27T04:46:56.172000,15.27459222,.0003123,97.2724,63.5498,50.4517,309.6997,0,U,56193,999,17855,.21972E-3,.5832E-4,0
HAWK-7C,2023-054Y,2026-06-27T04:46:46.059744,15.27459211,.0002941,97.2700,64.3152,40.9088,319.2372,0,U,56200,999,17855,.21551E-3,.5719E-4,0
