HAWK-6B                 
1 55324U 23011A   26178.01925230  .00004760  00000+0  20616-3 0  9996
2 55324  40.4995 294.7226 0001350 106.4232 253.6726 15.23016658189344
HAWK-6C                 
1 55326U 23011C   26178.01862191  .00004677  00000+0  20276-3 0  9993
2 55326  40.4978 291.5638 0001989  81.8306 278.2729 15.23009964189354
HAWK-6A                 
1 55327U 23011D   26178.01865759  .00004839  00000+0  20946-3 0  9991
2 55327  40.4992 293.1892 0001576  76.0949 284.0036 15.23014894189356
HAWK-7A                 
1 56191U 23054P   26178.19933296  .00005857  00000+0  22060-3 0  9999
2 56191  97.2696  65.2823 0003498  34.2908 325.8556 15.27460883178553
HAWK-7B                 
1 56193U 23054R   26178.19926125  .00005832  00000+0  21972-3 0  9998
2 56193  97.2724  63.5498 0003123  50.4517 309.6997 15.27459222178551
HAWK-7C                 
1 56200U 23054Y   26178.19914421  .00005719  00000+0  21551-3 0  9990
2 56200  97.2700  64.3152 0002941  40.9088 319.2372 15.27459211178556
